ONEWEB-0080             
1 45426U 20020C   24204.36116668 -.00000409  00000+0 -11906-2 0  9997
2 45426  87.8985 159.3694 0001824  71.4073 288.7253 13.11416470211638
ONEWEB-0090             
1 45427U 20020D   24204.91219005  .00000781  00000+0  21677-2 0  9995
2 45427  87.9020 159.2455 0002302  84.9264 275.2127 13.11419409211688
ONEWEB-0061             
1 45428U 20020E   24204.94427989  .00000549  00000+0  15127-2 0  9996
2 45428  87.8986 159.2355 0002046  79.3021 280.8337 13.11418462211630
ONEWEB-0081             
1 45429U 20020F   24204.92577359  .00000128  00000+0  32458-3 0  9992
2 45429  87.8987 159.2571 0002199  75.7285 284.4087 13.11419229211749
ONEWEB-0069             
1 45430U 20020G   24204.91559082 -.00000309  00000+0 -90664-3 0  9992
2 45430  87.8988 159.2480 0001944  79.9250 280.2097 13.11419328211673
ONEWEB-0031             
1 45431U 20020H   24204.42899231 -.00000160  00000+0 -48586-3 0  9993
2 45431  87.8991 159.3545 0002050  83.4328 276.7033 13.11416772211597
ONEWEB-0027             
1 45432U 20020J   24204.79381981 -.00000008  00000+0 -54781-4 0  9998
2 45432  87.9185 144.1204 0001904  88.9190 271.2160 13.17647557214915
ONEWEB-0064             
1 45433U 20020K   24204.96137665  .00000090  00000+0  21870-3 0  9997
2 45433  87.8988 159.2564 0001824  85.1907 274.9429 13.11412842211701
